*******************************************************************************
Ephemeris / WWW_USER Mon Mar 24 10:59:20 2025 Pasadena, USA      / Horizons    
*******************************************************************************
Target body name: (2018 TS1)                      {source: JPL#6}
Center body name: Earth (399)                     {source: DE441}
Center-site name: Mauna Kea
*******************************************************************************
Start time      : A.D. 2018-Aug-09 05:04:00.0000 UT      
Stop  time      : A.D. 2018-Aug-09 15:50:00.0000 UT      
Step-size       : 1 minutes
*******************************************************************************
Target pole/equ : undefined
Target radii    : undefined                                                    
Center geodetic : 204.5278, 19.8260847, 4.21024   {E-lon(deg),Lat(deg),Alt(km)}
Center cylindric: 204.5278, 6006.35451, 2151.0229 {E-lon(deg),Dxy(km),Dz(km)}
Center pole/equ : ITRF93                          {East-longitude positive}
Center radii    : 6378.137, 6378.137, 6356.752 km {Equator_a, b, pole_c}       
Target primary  : Sun
Vis. interferer : MOON (R_eq= 1737.400) km        {source: DE441}
Rel. light bend : Sun                             {source: DE441}
Rel. lght bnd GM: 1.3271E+11 km^3/s^2                                          
Small-body perts: Yes                             {source: SB441-N16}
Atmos refraction: NO (AIRLESS)
RA format       : HMS
Time format     : CAL 
Calendar mode   : Mixed Julian/Gregorian
RTS-only print  : NO       
EOP file        : eop.250321.p250617                                           
EOP coverage    : DATA-BASED 1962-JAN-20 TO 2025-MAR-21. PREDICTS-> 2025-JUN-16
Units conversion: 1 au= 149597870.700 km, c= 299792.458 km/s, 1 day= 86400.0 s 
Table cut-offs 1: Elevation (-90.0deg=NO ),Airmass (>38.000=NO), Daylight (YES)
Table cut-offs 2: Solar elongation (  0.0,180.0=NO ),Local Hour Angle( 0.0=NO )
Table cut-offs 3: RA/DEC angular rate (     0.0=NO )                           
*******************************************************************************
Initial IAU76/J2000 heliocentric ecliptic osculating elements (au, days, deg.):
  EPOCH=  2458397.5 ! 2018-Oct-06.00 (TDB)         Residual RMS= .30565        
   EC= .4232280089037878   QR= .7951431742456924   TP= 2458457.9340165281      
   OM= 356.454891650426    W=  97.01949783285009   IN= 2.243887958983723       
  Equivalent ICRF heliocentric cartesian coordinates (au, au/d):
   X= 1.037748414669454E+00  Y= 2.036665248544260E-01  Z= 1.007134111375925E-01
  VX=-1.028941390482545E-02 VY= 1.387292408111162E-02 VZ= 6.642652492995660E-03
Asteroid physical parameters (km, seconds, rotational period in hours):        
   GM= n.a.                RAD= n.a.               ROTPER= n.a.                
   H= 25.7                 G= .150                 B-V= n.a.                   
                           ALBEDO= n.a.            STYP= n.a.                  
*******************************************************************************
 Date__(UT)__HR:MN     R.A._________(ICRF)_________DEC
******************************************************
$$SOE
 2018-Aug-09 09:10     00 21 51.825548 -00 10 15.95762
 2018-Aug-09 09:11     00 21 51.863313 -00 10 15.67146
 2018-Aug-09 09:12     00 21 51.901059 -00 10 15.38530
 2018-Aug-09 09:13     00 21 51.938788 -00 10 15.09914
 2018-Aug-09 09:14     00 21 51.976499 -00 10 14.81299
 2018-Aug-09 09:15     00 21 52.014192 -00 10 14.52683
 2018-Aug-09 09:16     00 21 52.051867 -00 10 14.24068
 2018-Aug-09 09:17     00 21 52.089525 -00 10 13.95452
 2018-Aug-09 09:18     00 21 52.127164 -00 10 13.66837
 2018-Aug-09 09:19     00 21 52.164786 -00 10 13.38222
 2018-Aug-09 09:20     00 21 52.202390 -00 10 13.09607
 2018-Aug-09 09:21     00 21 52.239976 -00 10 12.80992
 2018-Aug-09 09:22     00 21 52.277545 -00 10 12.52377
 2018-Aug-09 09:23     00 21 52.315096 -00 10 12.23762
 2018-Aug-09 09:24     00 21 52.352630 -00 10 11.95148
 2018-Aug-09 09:25     00 21 52.390146 -00 10 11.66533
 2018-Aug-09 09:26     00 21 52.427644 -00 10 11.37919
 2018-Aug-09 09:27     00 21 52.465125 -00 10 11.09305
 2018-Aug-09 09:28     00 21 52.502589 -00 10 10.80691
 2018-Aug-09 09:29     00 21 52.540035 -00 10 10.52077
 2018-Aug-09 09:30     00 21 52.577464 -00 10 10.23463
 2018-Aug-09 09:31     00 21 52.614876 -00 10 09.94849
 2018-Aug-09 09:32     00 21 52.652270 -00 10 09.66236
 2018-Aug-09 09:33     00 21 52.689647 -00 10 09.37622
 2018-Aug-09 09:34     00 21 52.727007 -00 10 09.09009
 2018-Aug-09 09:35     00 21 52.764350 -00 10 08.80395
 2018-Aug-09 09:36     00 21 52.801676 -00 10 08.51782
 2018-Aug-09 09:37     00 21 52.838984 -00 10 08.23169
 2018-Aug-09 09:38     00 21 52.876276 -00 10 07.94556
 2018-Aug-09 09:39     00 21 52.913551 -00 10 07.65943
 2018-Aug-09 09:40     00 21 52.950809 -00 10 07.37331
 2018-Aug-09 09:41     00 21 52.988049 -00 10 07.08718
 2018-Aug-09 09:42     00 21 53.025274 -00 10 06.80106
 2018-Aug-09 09:43     00 21 53.062481 -00 10 06.51493
 2018-Aug-09 09:44     00 21 53.099671 -00 10 06.22881
 2018-Aug-09 09:45     00 21 53.136845 -00 10 05.94269
 2018-Aug-09 09:46     00 21 53.174002 -00 10 05.65657
 2018-Aug-09 09:47     00 21 53.211143 -00 10 05.37045
 2018-Aug-09 09:48     00 21 53.248267 -00 10 05.08433
 2018-Aug-09 09:49     00 21 53.285374 -00 10 04.79821
 2018-Aug-09 09:50     00 21 53.322465 -00 10 04.51210
 2018-Aug-09 09:51     00 21 53.359540 -00 10 04.22598
 2018-Aug-09 09:52     00 21 53.396598 -00 10 03.93987
 2018-Aug-09 09:53     00 21 53.433640 -00 10 03.65376
 2018-Aug-09 09:54     00 21 53.470666 -00 10 03.36765
 2018-Aug-09 09:55     00 21 53.507675 -00 10 03.08154
 2018-Aug-09 09:56     00 21 53.544668 -00 10 02.79543
 2018-Aug-09 09:57     00 21 53.581645 -00 10 02.50932
 2018-Aug-09 09:58     00 21 53.618606 -00 10 02.22321
 2018-Aug-09 09:59     00 21 53.655551 -00 10 01.93711
 2018-Aug-09 10:00     00 21 53.692479 -00 10 01.65100
 2018-Aug-09 10:01     00 21 53.729392 -00 10 01.36490
 2018-Aug-09 10:02     00 21 53.766289 -00 10 01.07880
 2018-Aug-09 10:03     00 21 53.803170 -00 10 00.79270
 2018-Aug-09 10:04     00 21 53.840036 -00 10 00.50660
 2018-Aug-09 10:05     00 21 53.876885 -00 10 00.22050
 2018-Aug-09 10:06     00 21 53.913719 -00 09 59.93440
 2018-Aug-09 10:07     00 21 53.950537 -00 09 59.64831
 2018-Aug-09 10:08     00 21 53.987340 -00 09 59.36221
 2018-Aug-09 10:09     00 21 54.024127 -00 09 59.07612
 2018-Aug-09 10:10     00 21 54.060898 -00 09 58.79002
 2018-Aug-09 10:11     00 21 54.097655 -00 09 58.50393
 2018-Aug-09 10:12     00 21 54.134395 -00 09 58.21784
 2018-Aug-09 10:13     00 21 54.171121 -00 09 57.93175
 2018-Aug-09 10:14     00 21 54.207831 -00 09 57.64566
 2018-Aug-09 10:15     00 21 54.244526 -00 09 57.35958
 2018-Aug-09 10:16     00 21 54.281205 -00 09 57.07349
 2018-Aug-09 10:17     00 21 54.317870 -00 09 56.78740
 2018-Aug-09 10:18     00 21 54.354519 -00 09 56.50132
 2018-Aug-09 10:19     00 21 54.391154 -00 09 56.21524
 2018-Aug-09 10:20     00 21 54.427773 -00 09 55.92916
 2018-Aug-09 10:21     00 21 54.464378 -00 09 55.64307
 2018-Aug-09 10:22     00 21 54.500968 -00 09 55.35700
 2018-Aug-09 10:23     00 21 54.537543 -00 09 55.07092
 2018-Aug-09 10:24     00 21 54.574103 -00 09 54.78484
 2018-Aug-09 10:25     00 21 54.610648 -00 09 54.49876
 2018-Aug-09 10:26     00 21 54.647179 -00 09 54.21269
 2018-Aug-09 10:27     00 21 54.683695 -00 09 53.92661
 2018-Aug-09 10:28     00 21 54.720197 -00 09 53.64054
 2018-Aug-09 10:29     00 21 54.756685 -00 09 53.35447
 2018-Aug-09 10:30     00 21 54.793158 -00 09 53.06840
 2018-Aug-09 10:31     00 21 54.829616 -00 09 52.78233
 2018-Aug-09 10:32     00 21 54.866061 -00 09 52.49626
 2018-Aug-09 10:33     00 21 54.902491 -00 09 52.21020
 2018-Aug-09 10:34     00 21 54.938907 -00 09 51.92413
 2018-Aug-09 10:35     00 21 54.975308 -00 09 51.63806
 2018-Aug-09 10:36     00 21 55.011696 -00 09 51.35200
 2018-Aug-09 10:37     00 21 55.048070 -00 09 51.06594
 2018-Aug-09 10:38     00 21 55.084430 -00 09 50.77988
 2018-Aug-09 10:39     00 21 55.120776 -00 09 50.49382
 2018-Aug-09 10:40     00 21 55.157108 -00 09 50.20776
 2018-Aug-09 10:41     00 21 55.193426 -00 09 49.92170
 2018-Aug-09 10:42     00 21 55.229731 -00 09 49.63564
 2018-Aug-09 10:43     00 21 55.266022 -00 09 49.34959
 2018-Aug-09 10:44     00 21 55.302300 -00 09 49.06353
 2018-Aug-09 10:45     00 21 55.338564 -00 09 48.77748
 2018-Aug-09 10:46     00 21 55.374814 -00 09 48.49142
 2018-Aug-09 10:47     00 21 55.411052 -00 09 48.20537
 2018-Aug-09 10:48     00 21 55.447275 -00 09 47.91932
 2018-Aug-09 10:49     00 21 55.483486 -00 09 47.63327
 2018-Aug-09 10:50     00 21 55.519684 -00 09 47.34722
 2018-Aug-09 10:51     00 21 55.555868 -00 09 47.06118
 2018-Aug-09 10:52     00 21 55.592039 -00 09 46.77513
 2018-Aug-09 10:53     00 21 55.628197 -00 09 46.48909
 2018-Aug-09 10:54     00 21 55.664343 -00 09 46.20304
 2018-Aug-09 10:55     00 21 55.700475 -00 09 45.91700
 2018-Aug-09 10:56     00 21 55.736594 -00 09 45.63096
 2018-Aug-09 10:57     00 21 55.772701 -00 09 45.34492
 2018-Aug-09 10:58     00 21 55.808795 -00 09 45.05888
 2018-Aug-09 10:59     00 21 55.844877 -00 09 44.77284
 2018-Aug-09 11:00     00 21 55.880946 -00 09 44.48680
 2018-Aug-09 11:01     00 21 55.917002 -00 09 44.20077
 2018-Aug-09 11:02     00 21 55.953046 -00 09 43.91473
 2018-Aug-09 11:03     00 21 55.989078 -00 09 43.62870
 2018-Aug-09 11:04     00 21 56.025098 -00 09 43.34267
 2018-Aug-09 11:05     00 21 56.061105 -00 09 43.05664
 2018-Aug-09 11:06     00 21 56.097100 -00 09 42.77061
 2018-Aug-09 11:07     00 21 56.133083 -00 09 42.48458
 2018-Aug-09 11:08     00 21 56.169053 -00 09 42.19855
 2018-Aug-09 11:09     00 21 56.205012 -00 09 41.91252
 2018-Aug-09 11:10     00 21 56.240959 -00 09 41.62650
 2018-Aug-09 11:11     00 21 56.276895 -00 09 41.34047
 2018-Aug-09 11:12     00 21 56.312818 -00 09 41.05445
